IRIDIUM 36              
1 24967U 97056C   24296.90342283  .00001112  00000+0  36783-3 0  9993
2 24967  86.3913 272.6365 0002535  86.4386 273.7101 14.37138207418135
IRIDIUM 39              
1 25042U 97069D   24297.31746351  .00001359  00000+0  35637-3 0  9992
2 25042  86.3881 312.7052 0018935  24.6052 335.6051 14.48490076414920
IRIDIUM 38              
1 25043U 97069E   24297.35657263  .00000837  00000+0  27237-3 0  9997
2 25043  86.3961 332.8230 0003503 121.2510 238.9032 14.37629406412188
IRIDIUM 42              
1 25077U 97077A   24297.35332426  .00000761  00000+0  25579-3 0  9997
2 25077  86.3978 338.7002 0002432 109.0521 251.0939 14.35902351407201
IRIDIUM 44              
1 25078U 97077B   24296.62426430  .00000884  00000+0  27594-3 0  9991
2 25078  86.3937 321.5645 0004095  89.9802 270.1866 14.39747122409519
IRIDIUM 24              
1 25105U 97082B   24296.76154257  .00000924  00000+0  27776-3 0  9995
2 25105  86.3973 180.9054 0012693 134.0196 226.2053 14.41585353409005
IRIDIUM 51              
1 25262U 98018A   24297.38163239  .00033871  00000+0  12656-2 0  9995
2 25262  86.3963 171.1916 0128946  67.7856 293.7006 15.19653797411049
